[{"OBJECT_NAME":"STARLINK-31583","OBJECT_ID":"2024-060X","EPOCH":"2026-03-09T12:26:21.176160","MEAN_MOTION":15.27568547,"ECCENTRICITY":0.00021447,"INCLINATION":43.0005,"RA_OF_ASC_NODE":249.8313,"ARG_OF_PERICENTER":287.1172,"MEAN_ANOMALY":72.9444,"EPHEMERIS_TYPE":0,"CLASSIFICATION_TYPE":"U","NORAD_CAT_ID":59369,"ELEMENT_SET_NO":999,"REV_AT_EPOCH":11016,"BSTAR":0.00010757897,"MEAN_MOTION_DOT":2.698e-5,"MEAN_MOTION_DDOT":0},{"OBJECT_NAME":"CZ-4C R\/B","OBJECT_ID":"2024-089B","EPOCH":"2026-03-09T16:45:24.409152","MEAN_MOTION":15.30115456,"ECCENTRICITY":0.00763424,"INCLINATION":97.7122,"RA_OF_ASC_NODE":107.3872,"ARG_OF_PERICENTER":235.0262,"MEAN_ANOMALY":124.3793,"EPHEMERIS_TYPE":0,"CLASSIFICATION_TYPE":"U","NORAD_CAT_ID":59729,"ELEMENT_SET_NO":999,"REV_AT_EPOCH":10143,"BSTAR":0.00030010198,"MEAN_MOTION_DOT":9.476e-5,"MEAN_MOTION_DDOT":0}]
